[{"OBJECT_NAME":"QIANFAN-64","OBJECT_ID":"2025-016K","EPOCH":"2026-03-09T23:33:58.082400","MEAN_MOTION":13.51005739,"ECCENTRICITY":0.00162512,"INCLINATION":88.9674,"RA_OF_ASC_NODE":93.9918,"ARG_OF_PERICENTER":90.3417,"MEAN_ANOMALY":269.9596,"EPHEMERIS_TYPE":0,"CLASSIFICATION_TYPE":"U","NORAD_CAT_ID":62794,"ELEMENT_SET_NO":999,"REV_AT_EPOCH":5904,"BSTAR":4.1237248e-5,"MEAN_MOTION_DOT":3.9e-7,"MEAN_MOTION_DDOT":0},{"OBJECT_NAME":"FENGYUN 1C DEB","OBJECT_ID":"1999-025BCX","EPOCH":"2026-03-09T07:43:09.956928","MEAN_MOTION":13.83667721,"ECCENTRICITY":0.01810888,"INCLINATION":98.6163,"RA_OF_ASC_NODE":199.8752,"ARG_OF_PERICENTER":90.8426,"MEAN_ANOMALY":325.194,"EPHEMERIS_TYPE":0,"CLASSIFICATION_TYPE":"U","NORAD_CAT_ID":31005,"ELEMENT_SET_NO":999,"REV_AT_EPOCH":95478,"BSTAR":0.0016211116,"MEAN_MOTION_DOT":1.996e-5,"MEAN_MOTION_DDOT":0}]
